#dP2024  2 11  6  0  0.00000000      96 __u+U IGS20 EXT  IAC
## 2301  21600.00000000   900.00000000 60351 0.2500000000000
+  118   C06C07C08C09C10C11C12C13C14C16C19C20C21C22C23C24C25
+        C26C27C28C29C30C32C33C34C35C36C37C38C39C40C41C42C43
+        C44C45C46E02E03E04E05E07E08E09E10E11E12E13E14E15E18
+        E19E21E24E25E26E27E30E31E33E34E36G01G03G04G05G06G07
+        G08G09G10G11G12G13G14G15G16G17G18G19G20G21G22G23G24
+        G25G26G27G28G29G30G31G32J02J03J04R01R02R03R04R05R07
+        R08R09R11R12R13R14R15R16R17R18R19R20R21R22R24R26  0
++        10 10  7  8  9  9  9  8  9  9  9  8  7  7  9  8  9
++         8  8  7  9 10  9  8  9  9  9  8 11  9  9 10  8  8
++         8  6  9  7  9  7  8  7  8  8  7  7  7  8  6  7  7
++         8  7  7  7  9  7  7  8  8  7  7  7  7  7  7  7  8
++         8  7  6  8  7  8  6  9  7  9  7  8  8  7  7  7  8
++         7  6  8  6  7  7  8  7  8 10  0  8  6  9  8  9  9
++         8  9  9  9  7  7  9  9  9  7 10  9  9  8  8  8  0
%c M  cc GPS ccc cccc cccc cccc cccc ccccc ccccc ccccc ccccc
%c cc cc ccc ccc cccc cccc cccc cccc ccccc ccccc ccccc ccccc
%f  0.0000000  0.000000000  0.00000000000  0.000000000000000
%f  0.0000000  0.000000000  0.00000000000  0.000000000000000
%i    0    0    0    0      0      0      0      0         0
%i    0    0    0    0      0      0      0      0         0
/* IAC                                ULTRA-RAPID PREDICTION
/* S/V CLOCKS ARE ALIGNED TO GNSS TIME                      
/* G:C1WC2W R:C1PC2P E:C1XC5X C:C2IC6I J:C1CC2S             
/* PCV:IGS20_2290 OL/AL:FES2004  NONE     YN ORB:CoN CLK:CoN
*  2024 02 11 10 45  0.00000000
PC06  -1995.405095  29843.167119 -29568.020227    103.170130
PC07 -15883.994193  29375.449118  25710.969376   -783.763531
PC08 -12190.317633  40471.220758    832.232251     46.528011
PC09   5769.224148  33860.186164 -23584.213418   -475.214781
PC10  -7617.430769  29592.917564  29196.706260     89.543166
PC11 -25119.650046  -8560.001397   8694.600967    404.964148
PC12 -18511.541047 -18476.016859  -9698.381915    772.608940
PC13  -6241.357484  41220.803342  -7030.309551    416.374877
PC14 -23562.534700   2375.341689  14734.436586    166.120405
PC16  -3412.034353  28273.005965 -30703.009998   -333.359053
PC19  25275.854194  -9930.017570  -6449.142497   -927.881957
PC20  19329.186872   4029.718416 -19717.404404   -152.199792
PC21   -982.370370 -16881.862399  22221.549499   -962.345683
PC22  17092.988698 -18971.588670  11285.445777   -113.818148
PC23  -9342.636912  22679.457863 -13320.512305   -781.946445
PC24 -13508.298759 -16075.519215 -18390.774696    874.398846
PC25 -15862.144874   5619.732728 -22278.728601    323.537116
PC26  -4007.053308 -27282.215813  -4186.042131   -247.627541
PC27  10962.852201  19601.990066  16536.012598    269.641676
PC28  -6630.116793  14609.444744  22839.537799    205.061359
PC29  23204.936129   -179.397881 -15499.372212    240.333364
PC30  24100.200401  13934.634179   1719.907018    -23.937069
PC32   1041.569022  16895.195386 -22164.489338   -565.994639
PC33 -25209.683321   9971.862472   6590.423697   -947.964980
PC34 -24655.990685 -13098.141662   -238.183639    366.955329
PC35   6175.225797 -14895.795169 -22788.273837    436.211550
PC36  16057.906837  -4618.349156  22362.495286    -18.944455
PC37   3064.494261  27502.985741   3709.776684   -935.602267
PC38 -15697.887100  38175.938505   8980.717180    136.142064
PC39  -8789.006987  23915.111685 -33500.729951     -7.073801
PC40 -23013.894724  23079.061425  26588.630042    -56.008848
PC41 -17654.940490  18854.045300 -10491.853395   -889.432065
PC42 -18156.180745  -5394.064263  20531.260766   -455.490718
PC43 -23685.834034   -551.009211  14757.011823     60.012293
PC44 -11507.642584 -19284.763409 -16600.561762    381.220718
PC45   9186.545836 -22804.790422  13168.086146    -69.394829
PC46  13681.622692  15270.744488  18934.982725   -122.947304
PE02  21425.220646 -13065.008992  15669.749182    102.505522
PE03  27891.210373  -4782.775842   8694.869756    -93.102384
PE04 -12518.866584  14974.370775 -22246.409878   -324.744564
PE05  26771.081462   8047.915368  -9724.357305   4719.000327
PE07  -9540.285705 -16358.574112  22754.439063   -103.199300
PE08  13247.144775 -14629.822622  22064.028550   -222.173678
PE09   9436.059524  16236.329758 -22879.602251   -332.149585
PE10   3798.894338  26086.535480  13460.442698   -601.107727
PE11  11354.445003  27090.334683   3566.142432   3252.505973
PE12  -3672.798306  21343.050748  20169.756715   -901.648372
PE13 -10965.597585 -27170.745348  -4247.265827    -20.154273
PE14 -15266.368088 -15064.889659 -16170.750241     36.302420
PE15   3988.696639 -20963.289166 -20508.929677    -85.198346
PE18  29320.172931   7414.414373   5104.567534    314.276921
PE19 -28670.082676   3140.691122  -6664.797171   -636.106254
PE21 -15888.558798  -6212.295019 -24198.818349   -578.465974
PE24    434.312390  22994.226489  18626.095809   -592.202777
PE25  15646.559499   6627.647150  24231.965508      0.737960
PE26 -19441.453964 -16820.616727  14686.360745    365.608800
PE27   -859.764031 -22734.655709 -18934.744249   -271.986977
PE30  14712.938295 -25566.693861  -2361.387378   -898.092972
PE31 -14516.168718  25674.370460   2560.222161    -15.756289
PE33 -16630.271250   1952.658327  24416.586348      7.419124
PE34  16388.706594  -2587.394485 -24512.146122    -94.029936
PE36  19255.802847  17399.411627 -14214.236296   -184.421491
PG01 -16375.561202  -2568.425211  20501.670905    169.120213
PG03 -17509.342104   3489.824277  19482.931771    186.119473
PG04 -26581.398702  -1665.382490   -192.606315    288.972479
PG05  12129.169537   9162.539294 -21945.840191   -161.395363
PG06   4185.305483  23775.827146  11016.858751    411.350410
PG07 -11149.205385  10907.785842 -20954.910374    -59.329083
PG08 -24637.863788  -6117.305493  -8610.988927   -166.479165
PG09 -22208.117581   8312.489310 -12107.814928     88.511564
PG10   9691.974673 -23738.896935   6443.661787     -0.261758
PG11  11739.759251  23847.033765   -551.671352   -572.061380
PG12  17865.583138  -1841.171532  19258.167509   -476.901838
PG13  17755.053561  13416.071896 -14866.381057    624.516168
PG14 -12908.788169  22953.818918   2572.445787    322.852066
PG15  24905.882554   3908.225208  -9168.703633    126.569916
PG16  -6781.121577 -15232.040037 -20905.758920   -365.045376
PG17 -10992.109789  13203.735781  20721.569414    717.337595
PG18  10038.339722 -12156.730585 -21329.849441   -553.140367
PG19   -203.257167  15013.493616  21737.312900    439.142846
PG20   4068.178824  20725.463903 -16142.385779    387.917385
PG21 -19662.399713 -14167.204222  12421.192462    135.323354
PG22  -8214.008978  23244.728546  10684.906945     33.031163
PG23  16364.101359 -19862.554752  -6132.524713    153.871845
PG24  19670.101395  11309.141271  13723.405401   -429.896579
PG25  18677.202215 -13229.830242  12900.459161    488.246514
PG26     70.766224 -22539.652754 -13902.367582    191.369432
PG27 -15207.861193 -12914.343922 -18016.315037     -3.057054
PG28  -2663.281670 -22915.921442  13143.389591   -127.413262
PG29  23696.712433  -4994.953620 -11072.215344   -607.184376
PG30  -3157.285010  20227.778826 -16648.991414   -434.003469
PG31  -9062.544733 -24350.904458   4130.875107   -227.728226
PG32   6434.187387 -14724.547726  21313.721588   -611.012298
PJ02 -28720.436255  30552.471308    126.269802     -1.886532
PJ03 -25485.047117  23187.604584  29420.681977     -0.220142
PJ04      0.000000      0.000000      0.000000     50.915580
PR01 -23081.618779  10549.364178  -2516.195106     76.890118
PR02 -12299.938470  13296.758045 -17944.133230    -22.456836
PR03   5998.025597   9271.835999 -22939.404670     94.316260
PR04  20394.662170    196.393402 -15275.291571    222.966515
PR05  23909.494011  -8826.505204    647.683819    126.740048
PR07  -7004.997562  -8885.918040  22909.707460     75.575956
PR08 -20571.484794    -24.208535  15170.284235    -74.379101
PR09   5611.332122 -24538.068981   4396.785200    169.392833
PR11  -9275.949127  -8675.049373 -22118.983512     34.699679
PR12 -11369.769095  12376.369584 -19178.562889     36.628639
PR13  -6914.152026  23606.226308  -6786.686821    -44.249416
PR14   2692.377431  22062.025889  12506.384140     26.061371
PR15   9775.790099   7172.049405  22452.830286     82.293035
PR16  11220.327393 -12177.514788  19416.408557     23.201890
PR17  14824.509991  18317.834133   9818.398194     60.327640
PR18  20462.180313  13607.544113  -6714.617565    126.830104
PR19  16594.515953   3691.826682 -19012.380892   -265.396420
PR20    785.258517 -12647.329662 -22135.440192   -108.108205
PR21 -14864.639763 -18382.532379  -9553.018856    -76.104424
PR22 -20243.423645 -13478.337349   7753.784164    107.570736
PR24    -85.281968  13328.538632  21770.378403    -43.475029
PR26 -19995.793823   -439.243974  15841.911708   -198.924199
EOF
